{
  "links" : {
    "next" : "https://api.nasa.gov/neo/rest/v1/neo/browse?page=25&size=20&api_key=jqAGvNAwUIBu4fl9FSOjdm3V4F7hIglRzI6pdX9d",
    "prev" : "https://api.nasa.gov/neo/rest/v1/neo/browse?page=23&size=20&api_key=jqAGvNAwUIBu4fl9FSOjdm3V4F7hIglRzI6pdX9d",
    "self" : "https://api.nasa.gov/neo/rest/v1/neo/browse?page=24&size=20&api_key=jqAGvNAwUIBu4fl9FSOjdm3V4F7hIglRzI6pdX9d"
  },
  "page" : {
    "size" : 20,
    "total_elements" : 20750,
    "total_pages" : 1038,
    "number" : 24
  },
  "near_earth_objects" : [ {
    "links" : {
      "self" : "https://api.nasa.gov/neo/rest/v1/neo/3311263?api_key=jqAGvNAwUIBu4fl9FSOjdm3V4F7hIglRzI6pdX9d"
    },
    "neo_reference_id" : "3311263",
    "name" : "(2006 AX)",
    "designation" : "2006 AX",
    "nasa_jpl_url" : "http://ssd.jpl.nasa.gov/sbdb.cgi?sstr=3311263",
    "absolute_magnitude_h" : 23.9,
    "estimated_diameter" : {
      "kilometers" : {
        "estimated_diameter_min" : 0.04411182,
        "estimated_diameter_max" : 0.0986370281
      },
      "meters" : {
        "estimated_diameter_min" : 44.1118199997,
        "estimated_diameter_max" : 98.6370281305
      },
      "miles" : {
        "estimated_diameter_min" : 0.0274098057,
        "estimated_diameter_max" : 0.0612901888
      },
      "feet" : {
        "estimated_diameter_min" : 144.7238235278,
        "estimated_diameter_max" : 323.6123073718
      }
    },
    "is_potentially_hazardous_asteroid" : false,
    "close_approach_data" : [ {
      "close_approach_date" : "2006-01-16",
      "epoch_date_close_approach" : 1137398400000,
      "relative_velocity" : {
        "kilometers_per_second" : "6.2597285063",
        "kilometers_per_hour" : "22535.022622723",
        "miles_per_hour" : "14002.3866957692"
      },
      "miss_distance" : {
        "astronomical" : "0.1627389266",
        "lunar" : "63.3054389954",
        "kilometers" : "24345396",
        "miles" : "15127528"
      },
      "orbiting_body" : "Earth"
    } ],
    "orbital_data" : {
      "orbit_id" : "9",
      "orbit_determination_date" : "2017-04-06 09:09:31",
      "first_observation_date" : "2006-01-02",
      "last_observation_date" : "2006-01-27",
      "data_arc_in_days" : 25,
      "observations_used" : 17,
      "orbit_uncertainty" : "7",
      "minimum_orbit_intersection" : ".162748",
      "jupiter_tisserand_invariant" : "5.000",
      "epoch_osculation" : "2458600.5",
      "eccentricity" : ".1414822903544158",
      "semi_major_axis" : "1.289637866708333",
      "inclination" : "11.67120353682278",
      "ascending_node_longitude" : "280.5143393718345",
      "orbital_period" : "534.9338638394197",
      "perihelion_distance" : "1.107176947598655",
      "perihelion_argument" : "232.8204554833588",
      "aphelion_distance" : "1.47209878581801",
      "perihelion_time" : "2458608.955505973352",
      "mean_anomaly" : "354.3096102973202",
      "mean_motion" : ".6729803894188823",
      "equinox" : "J2000",
      "orbit_class" : {
        "orbit_class_type" : "AMO",
        "orbit_class_range" : "1.017 AU < q (perihelion) < 1.3 AU",
        "orbit_class_description" : "Near-Earth asteroid orbits similar to that of 1221 Amor"
      }
    },
    "is_sentry_object" : false
  }, {
    "links" : {
      "self" : "https://api.nasa.gov/neo/rest/v1/neo/3311267?api_key=jqAGvNAwUIBu4fl9FSOjdm3V4F7hIglRzI6pdX9d"
    },
    "neo_reference_id" : "3311267",
    "name" : "(2006 AV2)",
    "designation" : "2006 AV2",
    "nasa_jpl_url" : "http://ssd.jpl.nasa.gov/sbdb.cgi?sstr=3311267",
    "absolute_magnitude_h" : 20.6,
    "estimated_diameter" : {
      "kilometers" : {
        "estimated_diameter_min" : 0.2016299194,
        "estimated_diameter_max" : 0.4508582062
      },
      "meters" : {
        "estimated_diameter_min" : 201.6299194428,
        "estimated_diameter_max" : 450.8582061718
      },
      "miles" : {
        "estimated_diameter_min" : 0.1252869847,
        "estimated_diameter_max" : 0.2801502144
      },
      "feet" : {
        "estimated_diameter_min" : 661.5155049046,
        "estimated_diameter_max" : 1479.1936371367
      }
    },
    "is_potentially_hazardous_asteroid" : false,
    "close_approach_data" : [ {
      "close_approach_date" : "2006-01-29",
      "epoch_date_close_approach" : 1138521600000,
      "relative_velocity" : {
        "kilometers_per_second" : "3.8326408551",
        "kilometers_per_hour" : "13797.5070784339",
        "miles_per_hour" : "8573.2343288191"
      },
      "miss_distance" : {
        "astronomical" : "0.2745814291",
        "lunar" : "106.8121795654",
        "kilometers" : "41076796",
        "miles" : "25523938"
      },
      "orbiting_body" : "Earth"
    } ],
    "orbital_data" : {
      "orbit_id" : "26",
      "orbit_determination_date" : "2017-04-06 09:09:32",
      "first_observation_date" : "2006-01-05",
      "last_observation_date" : "2006-03-25",
      "data_arc_in_days" : 79,
      "observations_used" : 133,
      "orbit_uncertainty" : "5",
      "minimum_orbit_intersection" : ".266049",
      "jupiter_tisserand_invariant" : "3.348",
      "epoch_osculation" : "2458600.5",
      "eccentricity" : ".4804942319127495",
      "semi_major_axis" : "2.40698713757229",
      "inclination" : "6.019725417677965",
      "ascending_node_longitude" : "304.2160019288457",
      "orbital_period" : "1363.983388189082",
      "perihelion_distance" : "1.250443701680625",
      "perihelion_argument" : "184.537207417941",
      "aphelion_distance" : "3.563530573463954",
      "perihelion_time" : "2459224.109723504987",
      "mean_anomaly" : "195.4089189019698",
      "mean_motion" : ".2639328331395302",
      "equinox" : "J2000",
      "orbit_class" : {
        "orbit_class_type" : "AMO",
        "orbit_class_range" : "1.017 AU < q (perihelion) < 1.3 AU",
        "orbit_class_description" : "Near-Earth asteroid orbits similar to that of 1221 Amor"
      }
    },
    "is_sentry_object" : false
  }, {
    "links" : {
      "self" : "https://api.nasa.gov/neo/rest/v1/neo/3311675?api_key=jqAGvNAwUIBu4fl9FSOjdm3V4F7hIglRzI6pdX9d"
    },
    "neo_reference_id" : "3311675",
    "name" : "(2006 AB3)",
    "designation" : "2006 AB3",
    "nasa_jpl_url" : "http://ssd.jpl.nasa.gov/sbdb.cgi?sstr=3311675",
    "absolute_magnitude_h" : 26.8,
    "estimated_diameter" : {
      "kilometers" : {
        "estimated_diameter_min" : 0.0116025908,
        "estimated_diameter_max" : 0.0259441818
      },
      "meters" : {
        "estimated_diameter_min" : 11.6025908209,
        "estimated_diameter_max" : 25.9441817907
      },
      "miles" : {
        "estimated_diameter_min" : 0.0072095135,
        "estimated_diameter_max" : 0.0161209622
      },
      "feet" : {
        "estimated_diameter_min" : 38.066244069,
        "estimated_diameter_max" : 85.1187093863
      }
    },
    "is_potentially_hazardous_asteroid" : false,
    "close_approach_data" : [ {
      "close_approach_date" : "2006-01-04",
      "epoch_date_close_approach" : 1136361600000,
      "relative_velocity" : {
        "kilometers_per_second" : "7.0991418925",
        "kilometers_per_hour" : "25556.9108130639",
        "miles_per_hour" : "15880.070499373"
      },
      "miss_distance" : {
        "astronomical" : "0.0346030999",
        "lunar" : "13.4606056213",
        "kilometers" : "5176550",
        "miles" : "3216559.25"
      },
      "orbiting_body" : "Earth"
    } ],
    "orbital_data" : {
      "orbit_id" : "8",
      "orbit_determination_date" : "2017-04-06 09:09:30",
      "first_observation_date" : "2006-01-04",
      "last_observation_date" : "2006-01-07",
      "data_arc_in_days" : 3,
      "observations_used" : 21,
      "orbit_uncertainty" : "8",
      "minimum_orbit_intersection" : ".0297007",
      "jupiter_tisserand_invariant" : "4.066",
      "epoch_osculation" : "2453741.5",
      "eccentricity" : ".4115910289447441",
      "semi_major_axis" : "1.716997943223953",
      "inclination" : "8.430081522816835",
      "ascending_node_longitude" : "285.1183552081764",
      "orbital_period" : "821.7753107287489",
      "perihelion_distance" : "1.010296993076397",
      "perihelion_argument" : "189.2999870364929",
      "aphelion_distance" : "2.423698893371509",
      "perihelion_time" : "2453748.388011693382",
      "mean_anomaly" : "356.9825277332577",
      "mean_motion" : ".438075950080263",
      "equinox" : "J2000",
      "orbit_class" : {
        "orbit_class_type" : "APO",
        "orbit_class_range" : "a (semi-major axis) > 1.0 AU; q (perihelion) < 1.017 AU",
        "orbit_class_description" : "Near-Earth asteroid orbits which cross the Earth’s orbit similar to that of 1862 Apollo"
      }
    },
    "is_sentry_object" : false
  } ]
}